NORAD_CAT_ID,OBJECT_NAME,OBJECT_TYPE,EPOCH,MEAN_MOTION,ECCENTRICITY,INCLINATION,RA_OF_ASC_NODE,ARG_OF_PERICENTER,MEAN_ANOMALY,BSTAR,MEAN_MOTION_DOT,MEAN_MOTION_DDOT,TLE_LINE0,TLE_LINE1,TLE_LINE2,SEMIMAJOR_AXIS,PERIOD,APOGEE,PERIGEE,DECAYED
52465.0,STARLINK-3863,PAYLOAD,2023-02-11 07:03:34,15.08840396,0.0001585,53.2186,47.7514,112.1352,247.9808,2.0779e-05,4.3e-07,0.0,0 STARLINK-3863,1 52465U 22049Q   23042.29415385  .00000043  00000-0  20779-4 0  9993,2 52465  53.2186  47.7514 0001585 112.1352 247.9808 15.08840396 42942,6917.879,95.438,540.841,538.648,0.0
52465.0,STARLINK-3863,PAYLOAD,2023-02-12 08:29:44,15.08849916,0.0001332,53.2189,42.9994,93.2887,266.8258,0.0001114,1.486e-05,0.0,0 STARLINK-3863,1 52465U 22049Q   23043.35398696  .00001486  00000-0  11140-3 0  9999,2 52465  53.2189  42.9994 0001332  93.2887 266.8258 15.08849916 43268,6917.85,95.437,540.637,538.794,0.0
52465.0,STARLINK-3863,PAYLOAD,2023-02-12 22:48:14,15.08829788,0.00015,53.2185,40.3204,87.7382,272.3781,5.6029e-05,6.04e-06,0.0,0 STARLINK-3863,1 52465U 22049Q   23043.95016383  .00000604  00000-0  56029-4 0  9992,2 52465  53.2185  40.3204 0001500  87.7382 272.3781 15.08829788 43353,6917.912,95.438,540.814,538.739,0.0
52465.0,STARLINK-3863,PAYLOAD,2023-02-13 06:45:09,15.08839982,0.0001159,53.219,38.8358,100.1139,259.9984,2.1101e-05,4.8e-07,0.0,0 STARLINK-3863,1 52465U 22049Q   23044.28135779  .00000048  00000-0  21101-4 0  9995,2 52465  53.2190  38.8358 0001159 100.1139 259.9984 15.08839982 43400,6917.88,95.438,540.547,538.944,0.0
52465.0,STARLINK-3863,PAYLOAD,2023-02-14 09:46:42,15.08843122,0.0001064,53.2177,33.7786,88.5799,271.5315,-6.9445e-06,-3.98e-06,0.0,0 STARLINK-3863,1 52465U 22049Q   23045.40743771 -.00000398  00000-0 -69445-5 0  9991,2 52465  53.2177  33.7786 0001064  88.5799 271.5315 15.08843122 43577,6917.871,95.437,540.472,539.0,0.0
52465.0,STARLINK-3863,PAYLOAD,2023-02-15 06:26:42,15.088789,0.0001279,53.2173,29.9144,71.6163,288.4969,-0.00045921,-7.597e-05,0.0,0 STARLINK-3863,1 52465U 22049Q   23046.26854573 -.00007597  00000-0 -45921-3 0  9998,2 52465  53.2173  29.9144 0001279  71.6163 288.4969 15.08878900 43703,6917.761,95.435,540.511,538.742,0.0
52465.0,STARLINK-3863,PAYLOAD,2023-02-15 22:20:34,15.08844051,0.000121,53.2182,26.9391,87.4546,272.6585,0.00013976,1.937e-05,0.0,0 STARLINK-3863,1 52465U 22049Q   23046.93095561  .00001937  00000-0  13976-3 0  9991,2 52465  53.2182  26.9391 0001210  87.4546 272.6585 15.08844051 43809,6917.868,95.437,540.57,538.896,0.0
52465.0,STARLINK-3863,PAYLOAD,2023-02-16 06:17:28,15.08865901,9.79e-05,53.2196,25.4492,97.1164,262.994,0.00034204,5.164e-05,0.0,0 STARLINK-3863,1 52465U 22049Q   23047.26213346  .00005164  00000-0  34204-3 0  9994,2 52465  53.2196  25.4492 0000979  97.1164 262.9940 15.08865901 43854,6917.801,95.436,540.343,538.989,0.0
52465.0,STARLINK-3863,PAYLOAD,2023-02-16 15:49:49,15.08834996,0.0001672,53.2173,23.668,74.6333,285.4843,3.8591e-05,3.26e-06,0.0,0 STARLINK-3863,1 52465U 22049Q   23047.65960346  .00000326  00000-0  38591-4 0  9995,2 52465  53.2173  23.6680 0001672  74.6333 285.4843 15.08834996 43916,6917.896,95.438,540.917,538.604,0.0
52465.0,STARLINK-3863,PAYLOAD,2023-02-17 04:32:56,15.08821901,0.0001493,53.2188,21.2912,69.005,291.1101,-0.00014249,-2.554e-05,0.0,0 STARLINK-3863,1 52465U 22049Q   23048.18954037 -.00002554  00000-0 -14249-3 0  9994,2 52465  53.2188  21.2912 0001493  69.0050 291.1101 15.08821901 43990,6917.936,95.439,540.834,538.768,0.0
52465.0,STARLINK-3863,PAYLOAD,2023-02-17 07:43:41,15.08832089,0.0001266,53.2192,20.6907,102.4222,257.6912,-0.00015317,-2.724e-05,0.0,0 STARLINK-3863,1 52465U 22049Q   23048.32201279 -.00002724  00000-0 -15317-3 0  9999,2 52465  53.2192  20.6907 0001266 102.4222 257.6912 15.08832089 44013,6917.905,95.438,540.645,538.894,0.0
52465.0,STARLINK-3863,PAYLOAD,2023-02-17 15:40:37,15.08829282,0.000119,53.219,19.2057,89.9242,270.1886,-6.2699e-05,-1.285e-05,0.0,0 STARLINK-3863,1 52465U 22049Q   23048.65321426 -.00001285  00000-0 -62699-4 0  9999,2 52465  53.2190  19.2057 0001190  89.9242 270.1886 15.08829282 43906,6917.913,95.438,540.601,538.955,0.0
52465.0,STARLINK-3863,PAYLOAD,2023-02-18 04:23:42,15.08838364,9.98e-05,53.2191,16.8294,77.4622,282.6482,2.5236e-05,1.14e-06,0.0,0 STARLINK-3863,1 52465U 22049Q   23049.18312966  .00000114  00000-0  25236-4 0  9991,2 52465  53.2191  16.8294 0000998  77.4622 282.6482 15.08838364 44140,6917.885,95.438,540.441,539.06,0.0
52465.0,STARLINK-3863,PAYLOAD,2023-02-19 04:14:29,15.08816711,0.0001087,53.2185,12.3668,87.4734,272.6383,0.00075968,0.00011815,0.0,0 STARLINK-3863,1 52465U 22049Q   23050.17673317  .00011815  00000-0  75968-3 0  9998,2 52465  53.2185  12.3668 0001087  87.4734 272.6383 15.08816711 44291,6917.952,95.439,540.569,539.065,0.0
52465.0,STARLINK-3863,PAYLOAD,2023-02-19 13:46:48,15.08834558,0.0001715,53.2183,10.5822,86.0132,274.1057,0.00014885,2.081e-05,0.0,0 STARLINK-3863,1 52465U 22049Q   23050.57417297  .00002081  00000-0  14885-3 0  9991,2 52465  53.2183  10.5822 0001715  86.0132 274.1057 15.08834558 44199,6917.897,95.438,540.948,538.576,0.0
52465.0,STARLINK-3863,PAYLOAD,2023-02-20 04:05:16,15.08838162,9.76e-05,53.218,7.9094,87.2623,272.8481,0.00018186,2.608e-05,0.0,0 STARLINK-3863,1 52465U 22049Q   23051.17032964  .00002608  00000-0  18186-3 0  9995,2 52465  53.2180   7.9094 0000976  87.2623 272.8481 15.08838162 44442,6917.886,95.438,540.426,539.076,0.0
52465.0,STARLINK-3863,PAYLOAD,2023-02-20 13:37:35,15.08842976,0.0001099,53.2184,6.1253,94.3718,265.74,1.4227e-05,-6.1e-07,0.0,0 STARLINK-3863,1 52465U 22049Q   23051.56776940 -.00000061  00000-0  14227-4 0  9992,2 52465  53.2184   6.1253 0001099  94.3718 265.7400 15.08842976 44344,6917.871,95.437,540.497,538.976,0.0
52465.0,STARLINK-3863,PAYLOAD,2023-02-21 05:31:25,15.0885617,0.0001533,53.2193,3.1529,118.5446,241.57,-1.4078e-05,-5.12e-06,0.0,0 STARLINK-3863,1 52465U 22049Q   23052.23015965 -.00000512  00000-0 -14078-4 0  9996,2 52465  53.2193   3.1529 0001533 118.5446 241.5700 15.08856170 44602,6917.831,95.437,540.756,538.635,0.0
52465.0,STARLINK-3863,PAYLOAD,2023-02-21 13:28:21,15.08841884,0.0001323,53.2161,1.6614,95.6805,264.4338,8.8281e-05,1.117e-05,0.0,0 STARLINK-3863,1 52465U 22049Q   23052.56136453  .00001117  00000-0  88281-4 0  9995,2 52465  53.2161   1.6614 0001323  95.6805 264.4338 15.08841884 44658,6917.875,95.437,540.655,538.824,0.0
52465.0,STARLINK-3863,PAYLOAD,2023-02-21 19:49:54,15.08836777,0.0001434,53.218,0.4751,100.0875,260.0279,0.00010647,1.407e-05,0.0,0 STARLINK-3863,1 52465U 22049Q   23052.82632903  .00001407  00000-0  10647-3 0  9997,2 52465  53.2180   0.4751 0001434 100.0875 260.0279 15.08836777 44537,6917.89,95.438,540.747,538.763,0.0
52465.0,STARLINK-3863,PAYLOAD,2023-02-22 05:22:12,15.08851044,0.0001074,53.2178,358.6879,100.5971,259.5142,4.9786e-05,5.05e-06,0.0,0 STARLINK-3863,1 52465U 22049Q   23053.22376065  .00000505  00000-0  49786-4 0  9991,2 52465  53.2178 358.6879 0001074 100.5971 259.5142 15.08851044 44597,6917.847,95.437,540.455,538.969,0.0
52465.0,STARLINK-3863,PAYLOAD,2023-02-22 19:40:42,15.08827099,0.0001428,53.2181,356.0152,105.7442,254.3707,5.9423e-06,-1.93e-06,0.0,0 STARLINK-3863,1 52465U 22049Q   23053.81994072 -.00000193  00000-0  59423-5 0  9994,2 52465  53.2181 356.0152 0001428 105.7442 254.3707 15.08827099 44841,6917.92,95.438,540.773,538.797,0.0
52465.0,STARLINK-3863,PAYLOAD,2023-02-23 03:37:38,15.08835991,0.0001295,53.2176,354.5274,110.8825,249.2306,-3.158e-05,-7.9e-06,0.0,0 STARLINK-3863,1 52465U 22049Q   23054.15113821 -.00000790  00000-0 -31580-4 0  9994,2 52465  53.2176 354.5274 0001295 110.8825 249.2306 15.08835991 44890,6917.893,95.438,540.654,538.862,0.0
52465.0,STARLINK-3863,PAYLOAD,2023-02-23 19:31:29,15.08843512,0.0001421,53.2183,351.5534,96.3462,263.7692,0.00015286,2.146e-05,0.0,0 STARLINK-3863,1 52465U 22049Q   23054.81353018  .00002146  00000-0  15286-3 0  9990,2 52465  53.2183 351.5534 0001421  96.3462 263.7692 15.08843512 44831,6917.87,95.437,540.718,538.752,0.0
52465.0,STARLINK-3863,PAYLOAD,2023-02-23 22:42:15,15.08848383,0.0001341,53.2172,350.9593,95.1475,264.967,0.00029837,4.465e-05,0.0,0 STARLINK-3863,1 52465U 22049Q   23054.94601047  .00004465  00000-0  29837-3 0  9995,2 52465  53.2172 350.9593 0001341  95.1475 264.9670 15.08848383 45010,6917.855,95.437,540.647,538.792,0.0
52465.0,STARLINK-3863,PAYLOAD,2023-02-24 05:03:46,15.08864809,0.0001204,53.2168,349.7657,109.7429,250.3693,0.00042133,6.428e-05,0.0,0 STARLINK-3863,1 52465U 22049Q   23055.21095974  .00006428  00000-0  42133-3 0  9997,2 52465  53.2168 349.7657 0001204 109.7429 250.3693 15.08864809 45050,6917.805,95.436,540.502,538.837,0.0
52465.0,STARLINK-3863,PAYLOAD,2023-02-24 19:22:16,15.08841379,0.0001456,53.2177,347.0935,79.6077,280.508,0.00016491,2.338e-05,0.0,0 STARLINK-3863,1 52465U 22049Q   23055.80713416  .00002338  00000-0  16491-3 0  9994,2 52465  53.2177 347.0935 0001456  79.6077 280.5080 15.08841379 44986,6917.876,95.437,540.748,538.734,0.0
52465.0,STARLINK-3863,PAYLOAD,2023-02-25 01:43:48,15.08845802,0.000137,53.2174,345.9042,77.9396,282.175,0.00017749,2.538e-05,0.0,0 STARLINK-3863,1 52465U 22049Q   23056.07209162  .00002538  00000-0  17749-3 0  9991,2 52465  53.2174 345.9042 0001370  77.9396 282.1750 15.08845802 45189,6917.863,95.437,540.675,538.78,0.0
52465.0,STARLINK-3863,PAYLOAD,2023-02-25 06:29:57,15.08854257,0.0001374,53.2164,345.0111,70.3,289.8141,0.00063197,9.788e-05,0.0,0 STARLINK-3863,1 52465U 22049Q   23056.27080807  .00009788  00000-0  63197-3 0  9998,2 52465  53.2164 345.0111 0001374  70.3000 289.8141 15.08854257 45057,6917.837,95.437,540.652,538.751,0.0
52465.0,STARLINK-3863,PAYLOAD,2023-02-26 04:45:21,15.08870096,0.0001248,53.2161,340.8484,70.8247,289.288,0.0021494,0.00034114,0.0,0 STARLINK-3863,1 52465U 22049Q   23057.19816786  .00034114  00000-0  21494-2 0  9997,2 52465  53.2161 340.8484 0001248  70.8247 289.2880 15.08870096 45354,6917.788,95.436,540.517,538.79,0.0
